GLOBALSTAR M075         
1 37192U 10054E   26064.14264178 -.00000075  00000+0  15984-3 0  9995
2 37192  51.9935 106.9849 0000441 109.6782 258.4168 12.62264866708805
GLOBALSTAR M073         
1 37193U 10054F   26064.33584357 -.00000107  00000+0 -18392-4 0  9995
2 37193  52.0083  20.4155 0000520 101.8693  63.4982 12.62269695710812
GLOBALSTAR M083         
1 37739U 11033A   26064.10549183 -.00000074  00000+0  16877-3 0  9999
2 37739  51.9881 329.4910 0000764  90.7181  48.9959 12.62267441679803
GLOBALSTAR M088         
1 37740U 11033B   26064.24472311 -.00000109  00000+0 -30797-4 0  9992
2 37740  52.0194 235.2417 0000844  94.1638  77.3922 12.62262125675361
GLOBALSTAR M091         
1 37741U 11033C   26064.30258934 -.00000100  00000+0  23751-4 0  9995
2 37741  51.9984 198.1839 0000907  99.0808 275.6909 12.62270224676161
GLOBALSTAR M085         
1 37742U 11033D   26064.21078519 -.00000077  00000+0  14909-3 0  9992
2 37742  52.0119 149.6648 0000837 106.1582 271.5680 12.62269410676665
GLOBALSTAR M081         
1 37743U 11033E   26064.23951652 -.00000081  00000+0  12587-3 0  9998
2 37743  51.9951 152.1315 0000759 122.1122 266.3112 12.62262614676817
GLOBALSTAR M089         
1 37744U 11033F   26064.11847988 -.00000074  00000+0  16500-3 0  9993
2 37744  51.9920 106.6794 0000332 159.0057 219.1562 12.62264591677645
GLOBALSTAR M084         
1 38040U 11080A   26064.16023847 -.00000103  00000+0  45714-5 0  9994
2 38040  52.0037 333.9793 0000340  86.8771  60.9849 12.62265206655627
GLOBALSTAR M080         
1 38041U 11080B   26064.21477884 -.00000076  00000+0  15428-3 0  9991
2 38041  52.0085 335.4962 0001002  59.3017 105.9822 12.62266902655759
GLOBALSTAR M082         
1 38042U 11080C   26064.07159557 -.00000068  00000+0  20175-3 0  9996
2 38042  52.0075 291.4233 0001105  72.3233  91.9214 12.62268074656448
GLOBALSTAR M092         
1 38043U 11080D   26064.27849079 -.00000097  00000+0  39069-4 0  9999
2 38043  52.0107  21.1793 0000383  78.6631  66.2351 12.62264264654927
GLOBALSTAR M090         
1 38044U 11080E   26064.33737221 -.00000075  00000+0  15883-3 0  9995
2 38044  52.0117 284.5369 0000925  87.8591  83.6145 12.62271760656590
GLOBALSTAR M086         
1 38045U 11080F   26064.03920361 -.00000073  00000+0  16974-3 0  9992
2 38045  51.9895 285.5440 0001267 143.1561   7.2243 12.62283479656508
GLOBALSTAR M097         
1 39072U 13005A   26063.32235473 -.00000120  00000+0 -88788-4 0  9993
2 39072  52.0031 202.5493 0001026 110.5960 249.5017 12.62284370603664
GLOBALSTAR M093         
1 39073U 13005B   26064.32563360 -.00000103  00000+0  55995-5 0  9999
2 39073  52.0095 192.8049 0001153 113.2893 246.8095 12.62273212603747
