[{"OBJECT_NAME":"GLOBALSTAR M075","OBJECT_ID":"2010-054E","EPOCH":"2026-03-05T03:25:24.249792","MEAN_MOTION":12.62264866,"ECCENTRICITY":4.414e-5,"INCLINATION":51.9935,"RA_OF_ASC_NODE":106.9849,"ARG_OF_PERICENTER":109.6782,"MEAN_ANOMALY":258.4168,"EPHEMERIS_TYPE":0,"CLASSIFICATION_TYPE":"U","NORAD_CAT_ID":37192,"ELEMENT_SET_NO":999,"REV_AT_EPOCH":70880,"BSTAR":0.00015984469,"MEAN_MOTION_DOT":-7.5e-7,"MEAN_MOTION_DDOT":0},{"OBJECT_NAME":"GLOBALSTAR M073","OBJECT_ID":"2010-054F","EPOCH":"2026-03-05T08:03:36.884448","MEAN_MOTION":12.62269695,"ECCENTRICITY":5.208e-5,"INCLINATION":52.0083,"RA_OF_ASC_NODE":20.4155,"ARG_OF_PERICENTER":101.8693,"MEAN_ANOMALY":63.4982,"EPHEMERIS_TYPE":0,"CLASSIFICATION_TYPE":"U","NORAD_CAT_ID":37193,"ELEMENT_SET_NO":999,"REV_AT_EPOCH":71081,"BSTAR":-1.8391841e-5,"MEAN_MOTION_DOT":-1.07e-6,"MEAN_MOTION_DDOT":0},{"OBJECT_NAME":"GLOBALSTAR M083","OBJECT_ID":"2011-033A","EPOCH":"2026-03-05T02:31:54.494112","MEAN_MOTION":12.62267441,"ECCENTRICITY":7.649e-5,"INCLINATION":51.9881,"RA_OF_ASC_NODE":329.491,"ARG_OF_PERICENTER":90.7181,"MEAN_ANOMALY":48.9959,"EPHEMERIS_TYPE":0,"CLASSIFICATION_TYPE":"U","NORAD_CAT_ID":37739,"ELEMENT_SET_NO":999,"REV_AT_EPOCH":67980,"BSTAR":0.00016876651,"MEAN_MOTION_DOT":-7.4e-7,"MEAN_MOTION_DDOT":0},{"OBJECT_NAME":"GLOBALSTAR M088","OBJECT_ID":"2011-033B","EPOCH":"2026-03-05T05:52:24.076704","MEAN_MOTION":12.62262125,"ECCENTRICITY":8.441e-5,"INCLINATION":52.0194,"RA_OF_ASC_NODE":235.2417,"ARG_OF_PERICENTER":94.1638,"MEAN_ANOMALY":77.3922,"EPHEMERIS_TYPE":0,"CLASSIFICATION_TYPE":"U","NORAD_CAT_ID":37740,"ELEMENT_SET_NO":999,"REV_AT_EPOCH":67536,"BSTAR":-3.0796856e-5,"MEAN_MOTION_DOT":-1.09e-6,"MEAN_MOTION_DDOT":0},{"OBJECT_NAME":"GLOBALSTAR M091","OBJECT_ID":"2011-033C","EPOCH":"2026-03-05T07:15:43.718976","MEAN_MOTION":12.62270224,"ECCENTRICITY":9.078e-5,"INCLINATION":51.9984,"RA_OF_ASC_NODE":198.1839,"ARG_OF_PERICENTER":99.0808,"MEAN_ANOMALY":275.6909,"EPHEMERIS_TYPE":0,"CLASSIFICATION_TYPE":"U","NORAD_CAT_ID":37741,"ELEMENT_SET_NO":999,"REV_AT_EPOCH":67616,"BSTAR":2.3751189e-5,"MEAN_MOTION_DOT":-1.0e-6,"MEAN_MOTION_DDOT":0},{"OBJECT_NAME":"GLOBALSTAR M085","OBJECT_ID":"2011-033D","EPOCH":"2026-03-05T05:03:31.840416","MEAN_MOTION":12.6226941,"ECCENTRICITY":8.378e-5,"INCLINATION":52.0119,"RA_OF_ASC_NODE":149.6648,"ARG_OF_PERICENTER":106.1582,"MEAN_ANOMALY":271.568,"EPHEMERIS_TYPE":0,"CLASSIFICATION_TYPE":"U","NORAD_CAT_ID":37742,"ELEMENT_SET_NO":999,"REV_AT_EPOCH":67666,"BSTAR":0.00014909188,"MEAN_MOTION_DOT":-7.7e-7,"MEAN_MOTION_DDOT":0},{"OBJECT_NAME":"GLOBALSTAR M081","OBJECT_ID":"2011-033E","EPOCH":"2026-03-05T05:44:54.227328","MEAN_MOTION":12.62262614,"ECCENTRICITY":7.597e-5,"INCLINATION":51.9951,"RA_OF_ASC_NODE":152.1315,"ARG_OF_PERICENTER":122.1122,"MEAN_ANOMALY":266.3112,"EPHEMERIS_TYPE":0,"CLASSIFICATION_TYPE":"U","NORAD_CAT_ID":37743,"ELEMENT_SET_NO":999,"REV_AT_EPOCH":67681,"BSTAR":0.00012586965,"MEAN_MOTION_DOT":-8.1e-7,"MEAN_MOTION_DDOT":0},{"OBJECT_NAME":"GLOBALSTAR M089","OBJECT_ID":"2011-033F","EPOCH":"2026-03-05T02:50:36.661632","MEAN_MOTION":12.62264591,"ECCENTRICITY":3.322e-5,"INCLINATION":51.992,"RA_OF_ASC_NODE":106.6794,"ARG_OF_PERICENTER":159.0057,"MEAN_ANOMALY":219.1562,"EPHEMERIS_TYPE":0,"CLASSIFICATION_TYPE":"U","NORAD_CAT_ID":37744,"ELEMENT_SET_NO":999,"REV_AT_EPOCH":67764,"BSTAR":0.00016500302,"MEAN_MOTION_DOT":-7.4e-7,"MEAN_MOTION_DDOT":0},{"OBJECT_NAME":"GLOBALSTAR M084","OBJECT_ID":"2011-080A","EPOCH":"2026-03-05T03:50:44.603808","MEAN_MOTION":12.62265206,"ECCENTRICITY":3.404e-5,"INCLINATION":52.0037,"RA_OF_ASC_NODE":333.9793,"ARG_OF_PERICENTER":86.8771,"MEAN_ANOMALY":60.9849,"EPHEMERIS_TYPE":0,"CLASSIFICATION_TYPE":"U","NORAD_CAT_ID":38040,"ELEMENT_SET_NO":999,"REV_AT_EPOCH":65562,"BSTAR":4.571439e-6,"MEAN_MOTION_DOT":-1.03e-6,"MEAN_MOTION_DDOT":0},{"OBJECT_NAME":"GLOBALSTAR M080","OBJECT_ID":"2011-080B","EPOCH":"2026-03-05T05:09:16.891776","MEAN_MOTION":12.62266902,"ECCENTRICITY":0.00010028,"INCLINATION":52.0085,"RA_OF_ASC_NODE":335.4962,"ARG_OF_PERICENTER":59.3017,"MEAN_ANOMALY":105.9822,"EPHEMERIS_TYPE":0,"CLASSIFICATION_TYPE":"U","NORAD_CAT_ID":38041,"ELEMENT_SET_NO":999,"REV_AT_EPOCH":65575,"BSTAR":0.00015427545,"MEAN_MOTION_DOT":-7.6e-7,"MEAN_MOTION_DDOT":0},{"OBJECT_NAME":"GLOBALSTAR M082","OBJECT_ID":"2011-080C","EPOCH":"2026-03-05T01:43:05.857248","MEAN_MOTION":12.62268074,"ECCENTRICITY":0.00011054,"INCLINATION":52.0075,"RA_OF_ASC_NODE":291.4233,"ARG_OF_PERICENTER":72.3233,"MEAN_ANOMALY":91.9214,"EPHEMERIS_TYPE":0,"CLASSIFICATION_TYPE":"U","NORAD_CAT_ID":38042,"ELEMENT_SET_NO":999,"REV_AT_EPOCH":65644,"BSTAR":0.00020174694,"MEAN_MOTION_DOT":-6.8e-7,"MEAN_MOTION_DDOT":0},{"OBJECT_NAME":"GLOBALSTAR M092","OBJECT_ID":"2011-080D","EPOCH":"2026-03-05T06:41:01.604256","MEAN_MOTION":12.62264264,"ECCENTRICITY":3.839e-5,"INCLINATION":52.0107,"RA_OF_ASC_NODE":21.1793,"ARG_OF_PERICENTER":78.6631,"MEAN_ANOMALY":66.2351,"EPHEMERIS_TYPE":0,"CLASSIFICATION_TYPE":"U","NORAD_CAT_ID":38043,"ELEMENT_SET_NO":999,"REV_AT_EPOCH":65492,"BSTAR":3.9069133e-5,"MEAN_MOTION_DOT":-9.7e-7,"MEAN_MOTION_DDOT":0},{"OBJECT_NAME":"GLOBALSTAR M090","OBJECT_ID":"2011-080E","EPOCH":"2026-03-05T08:05:48.958944","MEAN_MOTION":12.6227176,"ECCENTRICITY":9.254e-5,"INCLINATION":52.0117,"RA_OF_ASC_NODE":284.5369,"ARG_OF_PERICENTER":87.8591,"MEAN_ANOMALY":83.6145,"EPHEMERIS_TYPE":0,"CLASSIFICATION_TYPE":"U","NORAD_CAT_ID":38044,"ELEMENT_SET_NO":999,"REV_AT_EPOCH":65659,"BSTAR":0.00015883176,"MEAN_MOTION_DOT":-7.5e-7,"MEAN_MOTION_DDOT":0},{"OBJECT_NAME":"GLOBALSTAR M086","OBJECT_ID":"2011-080F","EPOCH":"2026-03-05T00:56:27.191904","MEAN_MOTION":12.62283479,"ECCENTRICITY":0.00012673,"INCLINATION":51.9895,"RA_OF_ASC_NODE":285.544,"ARG_OF_PERICENTER":143.1561,"MEAN_ANOMALY":7.2243,"EPHEMERIS_TYPE":0,"CLASSIFICATION_TYPE":"U","NORAD_CAT_ID":38045,"ELEMENT_SET_NO":999,"REV_AT_EPOCH":65650,"BSTAR":0.00016974414,"MEAN_MOTION_DOT":-7.3e-7,"MEAN_MOTION_DDOT":0},{"OBJECT_NAME":"GLOBALSTAR M097","OBJECT_ID":"2013-005A","EPOCH":"2026-03-04T07:44:11.448672","MEAN_MOTION":12.6228437,"ECCENTRICITY":0.00010268,"INCLINATION":52.0031,"RA_OF_ASC_NODE":202.5493,"ARG_OF_PERICENTER":110.596,"MEAN_ANOMALY":249.5017,"EPHEMERIS_TYPE":0,"CLASSIFICATION_TYPE":"U","NORAD_CAT_ID":39072,"ELEMENT_SET_NO":999,"REV_AT_EPOCH":60366,"BSTAR":-8.8787927e-5,"MEAN_MOTION_DOT":-1.2e-6,"MEAN_MOTION_DDOT":0},{"OBJECT_NAME":"GLOBALSTAR M093","OBJECT_ID":"2013-005B","EPOCH":"2026-03-05T07:48:54.743040","MEAN_MOTION":12.62273212,"ECCENTRICITY":0.00011532,"INCLINATION":52.0095,"RA_OF_ASC_NODE":192.8049,"ARG_OF_PERICENTER":113.2893,"MEAN_ANOMALY":246.8095,"EPHEMERIS_TYPE":0,"CLASSIFICATION_TYPE":"U","NORAD_CAT_ID":39073,"ELEMENT_SET_NO":999,"REV_AT_EPOCH":60374,"BSTAR":5.599503e-6,"MEAN_MOTION_DOT":-1.03e-6,"MEAN_MOTION_DDOT":0}]
